[{"OBJECT_NAME":"SITRO-AIS 8 (ANOKHIN)","OBJECT_ID":"2023-091AD","EPOCH":"2026-03-09T23:44:40.058592","MEAN_MOTION":15.29359179,"ECCENTRICITY":0.0012509,"INCLINATION":97.5169,"RA_OF_ASC_NODE":133.2823,"ARG_OF_PERICENTER":92.0171,"MEAN_ANOMALY":268.2501,"EPHEMERIS_TYPE":0,"CLASSIFICATION_TYPE":"U","NORAD_CAT_ID":57193,"ELEMENT_SET_NO":999,"REV_AT_EPOCH":14927,"BSTAR":0.00064982524,"MEAN_MOTION_DOT":0.00018494,"MEAN_MOTION_DDOT":0},{"OBJECT_NAME":"STARLINK-34208","OBJECT_ID":"2025-144S","EPOCH":"2026-03-09T12:55:07.013568","MEAN_MOTION":15.30211693,"ECCENTRICITY":0.000144,"INCLINATION":53.1575,"RA_OF_ASC_NODE":179.2599,"ARG_OF_PERICENTER":129.4289,"MEAN_ANOMALY":230.6839,"EPHEMERIS_TYPE":0,"CLASSIFICATION_TYPE":"U","NORAD_CAT_ID":64740,"ELEMENT_SET_NO":999,"REV_AT_EPOCH":3972,"BSTAR":0.00079748045,"MEAN_MOTION_DOT":0.00023343,"MEAN_MOTION_DDOT":0}]
